{"fetched_at":"2026-03-29T16:36:15Z","count":15609,"tles":[{"name":"KEPLER-21","line1":"1 56218U 23054AS  26087.74463590  .00102932  00000+0  64774-3 0  9994","line2":"2 56218  97.2947   2.5071 0001224  42.2366 317.8993 15.76398911166473","category":"Other"}]}