{
  "norad_id": 56218,
  "name": "KEPLER-21",
  "history": [
    {
      "epoch": "2026-03-28T17:52:16.541760",
      "apogee_km": 341.47574169554537,
      "perigee_km": 339.83098181498826,
      "latitude_deg": 79.23292071056837,
      "longitude_deg": -126.71495359996334,
      "semi_major_axis_km": 6718.7903617552665,
      "eccentricity": 0.0001224,
      "inclination_deg": 97.2947,
      "raan_deg": 2.5071,
      "arg_perigee_deg": 42.2366,
      "mean_anomaly_deg": 317.8993,
      "mean_motion_rev_day": 15.76398911
    }
  ]
}